ONEWEB-0176             
1 48210U 21031A   25344.71133692  .00001989  00000+0  53280-2 0  9998
2 48210  87.8990 327.2507 0001730  81.3720 278.7605 13.14519359223559
ONEWEB-0184             
1 48211U 21031B   25344.68440187 -.00000056  00000+0 -18634-3 0  9996
2 48211  87.9001 327.2366 0002218  64.6209 295.5151 13.14503963223529
ONEWEB-0179             
1 48212U 21031C   25344.65507073 -.00000368  00000+0 -10277-2 0  9992
2 48212  87.8967 327.2541 0001205 109.2079 250.9181 13.14494803223565
ONEWEB-0180             
1 48213U 21031D   25344.68756972 -.00000096  00000+0 -29358-3 0  9999
2 48213  87.8999 327.2416 0001557  76.4701 283.6602 13.14503210223451
ONEWEB-0218             
1 48214U 21031E   25344.70977888  .00000203  00000+0  51374-3 0  9995
2 48214  87.8999 327.2377 0002028  58.4643 301.6684 13.14503104223618
ONEWEB-0209             
1 48215U 21031F   25344.69867358  .00000057  00000+0  11948-3 0  9994
2 48215  87.8988 327.2767 0001526  84.9140 275.2164 13.14503464223616
ONEWEB-0198             
1 48216U 21031G   25344.68294374 -.00000113  00000+0 -33912-3 0  9996
2 48216  87.8987 327.2769 0001569  72.0153 288.1147 13.14504317223721
ONEWEB-0189             
1 48217U 21031H   25344.69549304  .00000064  00000+0  13844-3 0  9999
2 48217  87.8990 327.2484 0001603  73.6760 286.4546 13.14504375223469
